{"type": "FeatureCollection", "features": [{"type": "Feature", "geometry": {"type": "Point", "coordinates": [-2.5848588, 51.4630034]}, "properties": {"node_id": 104804}}, {"type": "Feature", "geometry": {"type": "Point", "coordinates": [-2.586081, 51.4639194]}, "properties": {"node_id": 104808}}, {"type": "Feature", "geometry": {"type": "Point", "coordinates": [-2.580726, 51.4639673]}, "properties": {"node_id": 104812}}, {"type": "Feature", "geometry": {"type": "Point", "coordinates": [-2.5796921, 51.4634456]}, "properties": {"node_id": 104814}}, {"type": "Feature", "geometry": {"type": "Point", "coordinates": [-2.5807185, 51.461573]}, "properties": {"node_id": 104829}}, {"type": "Feature", "geometry": {"type": "Point", "coordinates": [-2.5866486, 51.4643456]}, "properties": {"node_id": 104833}}, {"type": "Feature", "geometry": {"type": "Point", "coordinates": [-2.5872167, 51.4617977]}, "properties": {"node_id": 104837}}, {"type": "Feature", "geometry": {"type": "Point", "coordinates": [-2.5887285, 51.4610617]}, "properties": {"node_id": 104838}}, {"type": "Feature", "geometry": {"type": "Point", "coordinates": [-2.5858771, 51.4570684]}, "properties": {"node_id": 104854}}, {"type": "Feature", "geometry": {"type": "Point", "coordinates": [-2.5867257, 51.4582949]}, "properties": {"node_id": 104855}}, {"type": "Feature", "geometry": {"type": "Point", "coordinates": [-2.5899842, 51.4575365]}, "properties": {"node_id": 104858}}, {"type": "Feature", "geometry": {"type": "Point", "coordinates": [-2.5914231, 51.4570992]}, "properties": {"node_id": 104859}}, {"type": "Feature", "geometry": {"type": "Point", "coordinates": [-2.5799256, 51.4564587]}, "properties": {"node_id": 216601}}, {"type": "Feature", "geometry": {"type": "Point", "coordinates": [-2.580242, 51.4574095]}, "properties": {"node_id": 17396682}}, {"type": "Feature", "geometry": {"type": "Point", "coordinates": [-2.5854634, 51.4564648]}, "properties": {"node_id": 17405115}}, {"type": "Feature", "geometry": {"type": "Point", "coordinates": [-2.5919179, 51.4576936]}, "properties": {"node_id": 17406787}}, {"type": "Feature", "geometry": {"type": "Point", "coordinates": [-2.5882945, 51.4565938]}, "properties": {"node_id": 17406822}}, {"type": "Feature", "geometry": {"type": "Point", "coordinates": [-2.582482, 51.4601039]}, "properties": {"node_id": 17476811}}, {"type": "Feature", "geometry": {"type": "Point", "coordinates": [-2.5835558, 51.4596597]}, "properties": {"node_id": 17476815}}, {"type": "Feature", "geometry": {"type": "Point", "coordinates": [-2.5836427, 51.4585889]}, "properties": {"node_id": 17476820}}, {"type": "Feature", "geometry": {"type": "Point", "coordinates": [-2.5837823, 51.4583794]}, "properties": {"node_id": 17476821}}, {"type": "Feature", "geometry": {"type": "Point", "coordinates": [-2.5823311, 51.4602364]}, "properties": {"node_id": 17476831}}, {"type": "Feature", "geometry": {"type": "Point", "coordinates": [-2.5815743, 51.4608523]}, "properties": {"node_id": 17476836}}, {"type": "Feature", "geometry": {"type": "Point", "coordinates": [-2.5846117, 51.4575434]}, "properties": {"node_id": 17476842}}, {"type": "Feature", "geometry": {"type": "Point", "coordinates": [-2.5840314, 51.458376]}, "properties": {"node_id": 17476871}}, {"type": "Feature", "geometry": {"type": "Point", "coordinates": [-2.5839225, 51.4592344]}, "properties": {"node_id": 17476874}}, {"type": "Feature", "geometry": {"type": "Point", "coordinates": [-2.5840601, 51.4596247]}, "properties": {"node_id": 17476875}}, {"type": "Feature", "geometry": {"type": "Point", "coordinates": [-2.5901682, 51.4596839]}, "properties": {"node_id": 17660703}}, {"type": "Feature", "geometry": {"type": "Point", "coordinates": [-2.5908112, 51.4590827]}, "properties": {"node_id": 17660726}}, {"type": "Feature", "geometry": {"type": "Point", "coordinates": [-2.5909588, 51.4597523]}, "properties": {"node_id": 17660738}}, {"type": "Feature", "geometry": {"type": "Point", "coordinates": [-2.5847166, 51.4606321]}, "properties": {"node_id": 19871255}}, {"type": "Feature", "geometry": {"type": "Point", "coordinates": [-2.5860178, 51.4608379]}, "properties": {"node_id": 19871260}}, {"type": "Feature", "geometry": {"type": "Point", "coordinates": [-2.586359, 51.4612686]}, "properties": {"node_id": 19871261}}, {"type": "Feature", "geometry": {"type": "Point", "coordinates": [-2.585191, 51.4612259]}, "properties": {"node_id": 19871266}}, {"type": "Feature", "geometry": {"type": "Point", "coordinates": [-2.5822897, 51.4613315]}, "properties": {"node_id": 19871273}}, {"type": "Feature", "geometry": {"type": "Point", "coordinates": [-2.5828657, 51.4611473]}, "properties": {"node_id": 19871274}}, {"type": "Feature", "geometry": {"type": "Point", "coordinates": [-2.5860455, 51.462375]}, "properties": {"node_id": 19875363}}, {"type": "Feature", "geometry": {"type": "Point", "coordinates": [-2.5868757, 51.4619615]}, "properties": {"node_id": 19875366}}, {"type": "Feature", "geometry": {"type": "Point", "coordinates": [-2.5870991, 51.4634284]}, "properties": {"node_id": 19875367}}, {"type": "Feature", "geometry": {"type": "Point", "coordinates": [-2.5875944, 51.4639111]}, "properties": {"node_id": 19875368}}, {"type": "Feature", "geometry": {"type": "Point", "coordinates": [-2.5880591, 51.4594324]}, "properties": {"node_id": 21238592}}, {"type": "Feature", "geometry": {"type": "Point", "coordinates": [-2.5892327, 51.4643495]}, "properties": {"node_id": 21257368}}, {"type": "Feature", "geometry": {"type": "Point", "coordinates": [-2.5864293, 51.4565357]}, "properties": {"node_id": 21309349}}, {"type": "Feature", "geometry": {"type": "Point", "coordinates": [-2.5867816, 51.4565355]}, "properties": {"node_id": 21309350}}, {"type": "Feature", "geometry": {"type": "Point", "coordinates": [-2.5866786, 51.4566238]}, "properties": {"node_id": 21309366}}, {"type": "Feature", "geometry": {"type": "Point", "coordinates": [-2.5867821, 51.4567406]}, "properties": {"node_id": 21309372}}, {"type": "Feature", "geometry": {"type": "Point", "coordinates": [-2.5897288, 51.464229]}, "properties": {"node_id": 21309452}}, {"type": "Feature", "geometry": {"type": "Point", "coordinates": [-2.5898705, 51.4632387]}, "properties": {"node_id": 21309748}}, {"type": "Feature", "geometry": {"type": "Point", "coordinates": [-2.5903385, 51.4620041]}, "properties": {"node_id": 21309749}}, {"type": "Feature", "geometry": {"type": "Point", "coordinates": [-2.5911007, 51.4608348]}, "properties": {"node_id": 21309750}}, {"type": "Feature", "geometry": {"type": "Point", "coordinates": [-2.5899541, 51.4628554]}, "properties": {"node_id": 21309820}}, {"type": "Feature", "geometry": {"type": "Point", "coordinates": [-2.5910172, 51.4622222]}, "properties": {"node_id": 21309821}}, {"type": "Feature", "geometry": {"type": "Point", "coordinates": [-2.5900655, 51.4628128]}, "properties": {"node_id": 21309822}}, {"type": "Feature", "geometry": {"type": "Point", "coordinates": [-2.5908505, 51.4631618]}, "properties": {"node_id": 21309823}}, {"type": "Feature", "geometry": {"type": "Point", "coordinates": [-2.5852504, 51.4632806]}, "properties": {"node_id": 21591965}}, {"type": "Feature", "geometry": {"type": "Point", "coordinates": [-2.5863995, 51.4627431]}, "properties": {"node_id": 21591966}}, {"type": "Feature", "geometry": {"type": "Point", "coordinates": [-2.5876224, 51.4621417]}, "properties": {"node_id": 21591967}}, {"type": "Feature", "geometry": {"type": "Point", "coordinates": [-2.5815125, 51.4643714]}, "properties": {"node_id": 21591973}}, {"type": "Feature", "geometry": {"type": "Point", "coordinates": [-2.5884195, 51.4603748]}, "properties": {"node_id": 25280227}}, {"type": "Feature", "geometry": {"type": "Point", "coordinates": [-2.5882067, 51.4598654]}, "properties": {"node_id": 25280228}}, {"type": "Feature", "geometry": {"type": "Point", "coordinates": [-2.5873836, 51.4599989]}, "properties": {"node_id": 25280229}}, {"type": "Feature", "geometry": {"type": "Point", "coordinates": [-2.5856936, 51.4603664]}, "properties": {"node_id": 25280231}}, {"type": "Feature", "geometry": {"type": "Point", "coordinates": [-2.5875965, 51.4605083]}, "properties": {"node_id": 25280232}}, {"type": "Feature", "geometry": {"type": "Point", "coordinates": [-2.591134, 51.4641133]}, "properties": {"node_id": 26151671}}, {"type": "Feature", "geometry": {"type": "Point", "coordinates": [-2.5920411, 51.4568576]}, "properties": {"node_id": 26153261}}, {"type": "Feature", "geometry": {"type": "Point", "coordinates": [-2.5897435, 51.4639924]}, "properties": {"node_id": 26466665}}, {"type": "Feature", "geometry": {"type": "Point", "coordinates": [-2.5917413, 51.4625895]}, "properties": {"node_id": 30239256}}, {"type": "Feature", "geometry": {"type": "Point", "coordinates": [-2.5919408, 51.461554]}, "properties": {"node_id": 30239264}}, {"type": "Feature", "geometry": {"type": "Point", "coordinates": [-2.591424, 51.4624519]}, "properties": {"node_id": 30239268}}, {"type": "Feature", "geometry": {"type": "Point", "coordinates": [-2.59126, 51.4628933]}, "properties": {"node_id": 30239270}}, {"type": "Feature", "geometry": {"type": "Point", "coordinates": [-2.5820373, 51.4601377]}, "properties": {"node_id": 117677937}}, {"type": "Feature", "geometry": {"type": "Point", "coordinates": [-2.5812375, 51.4596885]}, "properties": {"node_id": 117677944}}, {"type": "Feature", "geometry": {"type": "Point", "coordinates": [-2.5809909, 51.4595594]}, "properties": {"node_id": 117677946}}, {"type": "Feature", "geometry": {"type": "Point", "coordinates": [-2.5801921, 51.4591213]}, "properties": {"node_id": 117677950}}, {"type": "Feature", "geometry": {"type": "Point", "coordinates": [-2.5795691, 51.4587737]}, "properties": {"node_id": 117677951}}, {"type": "Feature", "geometry": {"type": "Point", "coordinates": [-2.580739, 51.4579767]}, "properties": {"node_id": 117677976}}, {"type": "Feature", "geometry": {"type": "Point", "coordinates": [-2.5813919, 51.4582947]}, "properties": {"node_id": 117677989}}, {"type": "Feature", "geometry": {"type": "Point", "coordinates": [-2.582119, 51.4577625]}, "properties": {"node_id": 117677996}}, {"type": "Feature", "geometry": {"type": "Point", "coordinates": [-2.5828198, 51.4575605]}, "properties": {"node_id": 117678000}}, {"type": "Feature", "geometry": {"type": "Point", "coordinates": [-2.5816191, 51.4573004]}, "properties": {"node_id": 117678004}}, {"type": "Feature", "geometry": {"type": "Point", "coordinates": [-2.5809583, 51.4572052]}, "properties": {"node_id": 117678013}}, {"type": "Feature", "geometry": {"type": "Point", "coordinates": [-2.5814422, 51.460722]}, "properties": {"node_id": 117678033}}, {"type": "Feature", "geometry": {"type": "Point", "coordinates": [-2.5825658, 51.4582879]}, "properties": {"node_id": 117678036}}, {"type": "Feature", "geometry": {"type": "Point", "coordinates": [-2.5817026, 51.4587359]}, "properties": {"node_id": 117678038}}, {"type": "Feature", "geometry": {"type": "Point", "coordinates": [-2.5814651, 51.4589415]}, "properties": {"node_id": 117678043}}, {"type": "Feature", "geometry": {"type": "Point", "coordinates": [-2.5811666, 51.4592898]}, "properties": {"node_id": 117678047}}, {"type": "Feature", "geometry": {"type": "Point", "coordinates": [-2.5799647, 51.4602715]}, "properties": {"node_id": 117678074}}, {"type": "Feature", "geometry": {"type": "Point", "coordinates": [-2.5809148, 51.4608513]}, "properties": {"node_id": 117678111}}, {"type": "Feature", "geometry": {"type": "Point", "coordinates": [-2.5811598, 51.4607127]}, "properties": {"node_id": 117678115}}, {"type": "Feature", "geometry": {"type": "Point", "coordinates": [-2.5915603, 51.4569655]}, "properties": {"node_id": 242578487}}, {"type": "Feature", "geometry": {"type": "Point", "coordinates": [-2.5919169, 51.4578754]}, "properties": {"node_id": 242756955}}, {"type": "Feature", "geometry": {"type": "Point", "coordinates": [-2.5915244, 51.4579741]}, "properties": {"node_id": 247834407}}, {"type": "Feature", "geometry": {"type": "Point", "coordinates": [-2.5904907, 51.4583026]}, "properties": {"node_id": 247834447}}, {"type": "Feature", "geometry": {"type": "Point", "coordinates": [-2.5846097, 51.4572303]}, "properties": {"node_id": 260697232}}, {"type": "Feature", "geometry": {"type": "Point", "coordinates": [-2.5842915, 51.4575835]}, "properties": {"node_id": 262440061}}, {"type": "Feature", "geometry": {"type": "Point", "coordinates": [-2.5803924, 51.456963]}, "properties": {"node_id": 262440826}}, {"type": "Feature", "geometry": {"type": "Point", "coordinates": [-2.5843488, 51.4573081]}, "properties": {"node_id": 262441802}}, {"type": "Feature", "geometry": {"type": "Point", "coordinates": [-2.5829167, 51.4587181]}, "properties": {"node_id": 262441816}}, {"type": "Feature", "geometry": {"type": "Point", "coordinates": [-2.5818425, 51.4600443]}, "properties": {"node_id": 262442011}}, {"type": "Feature", "geometry": {"type": "Point", "coordinates": [-2.5829474, 51.4606347]}, "properties": {"node_id": 262442261}}, {"type": "Feature", "geometry": {"type": "Point", "coordinates": [-2.5843634, 51.4601591]}, "properties": {"node_id": 262442262}}, {"type": "Feature", "geometry": {"type": "Point", "coordinates": [-2.5836602, 51.4603866]}, "properties": {"node_id": 262442266}}, {"type": "Feature", "geometry": {"type": "Point", "coordinates": [-2.58397, 51.4608134]}, "properties": {"node_id": 262442292}}, {"type": "Feature", "geometry": {"type": "Point", "coordinates": [-2.5878976, 51.460181]}, "properties": {"node_id": 262442297}}, {"type": "Feature", "geometry": {"type": "Point", "coordinates": [-2.587734, 51.460486]}, "properties": {"node_id": 262442627}}, {"type": "Feature", "geometry": {"type": "Point", "coordinates": [-2.5876978, 51.4607822]}, "properties": {"node_id": 262442694}}, {"type": "Feature", "geometry": {"type": "Point", "coordinates": [-2.5878613, 51.4610654]}, "properties": {"node_id": 262442695}}, {"type": "Feature", "geometry": {"type": "Point", "coordinates": [-2.5873268, 51.461195]}, "properties": {"node_id": 262442698}}, {"type": "Feature", "geometry": {"type": "Point", "coordinates": [-2.5880054, 51.4611856]}, "properties": {"node_id": 262442706}}, {"type": "Feature", "geometry": {"type": "Point", "coordinates": [-2.588183, 51.4613221]}, "properties": {"node_id": 262442708}}, {"type": "Feature", "geometry": {"type": "Point", "coordinates": [-2.59202, 51.4641704]}, "properties": {"node_id": 264261495}}, {"type": "Feature", "geometry": {"type": "Point", "coordinates": [-2.5849703, 51.4629172]}, "properties": {"node_id": 282237615}}, {"type": "Feature", "geometry": {"type": "Point", "coordinates": [-2.5842743, 51.4619844]}, "properties": {"node_id": 282238482}}, {"type": "Feature", "geometry": {"type": "Point", "coordinates": [-2.584889, 51.4628277]}, "properties": {"node_id": 282238484}}, {"type": "Feature", "geometry": {"type": "Point", "coordinates": [-2.5854158, 51.46423]}, "properties": {"node_id": 283348057}}, {"type": "Feature", "geometry": {"type": "Point", "coordinates": [-2.5842715, 51.4633706]}, "properties": {"node_id": 283348151}}, {"type": "Feature", "geometry": {"type": "Point", "coordinates": [-2.5847552, 51.4645439]}, "properties": {"node_id": 283348164}}, {"type": "Feature", "geometry": {"type": "Point", "coordinates": [-2.5830591, 51.4640868]}, "properties": {"node_id": 283348168}}, {"type": "Feature", "geometry": {"type": "Point", "coordinates": [-2.5836549, 51.4637376]}, "properties": {"node_id": 283348229}}, {"type": "Feature", "geometry": {"type": "Point", "coordinates": [-2.5865958, 51.4615963]}, "properties": {"node_id": 287225971}}, {"type": "Feature", "geometry": {"type": "Point", "coordinates": [-2.582986, 51.4606896]}, "properties": {"node_id": 287226297}}, {"type": "Feature", "geometry": {"type": "Point", "coordinates": [-2.5895984, 51.4600951]}, "properties": {"node_id": 287226447}}, {"type": "Feature", "geometry": {"type": "Point", "coordinates": [-2.5904285, 51.4605801]}, "properties": {"node_id": 287226483}}, {"type": "Feature", "geometry": {"type": "Point", "coordinates": [-2.5897108, 51.4618839]}, "properties": {"node_id": 287226485}}, {"type": "Feature", "geometry": {"type": "Point", "coordinates": [-2.5908459, 51.4604494]}, "properties": {"node_id": 287226495}}, {"type": "Feature", "geometry": {"type": "Point", "coordinates": [-2.5902981, 51.4608571]}, "properties": {"node_id": 287226581}}, {"type": "Feature", "geometry": {"type": "Point", "coordinates": [-2.5921277, 51.4604654]}, "properties": {"node_id": 287226633}}, {"type": "Feature", "geometry": {"type": "Point", "coordinates": [-2.5918455, 51.4602926]}, "properties": {"node_id": 287226719}}, {"type": "Feature", "geometry": {"type": "Point", "coordinates": [-2.5916821, 51.4635883]}, "properties": {"node_id": 293091734}}, {"type": "Feature", "geometry": {"type": "Point", "coordinates": [-2.5884548, 51.462815]}, "properties": {"node_id": 293907316}}, {"type": "Feature", "geometry": {"type": "Point", "coordinates": [-2.5868248, 51.4592039]}, "properties": {"node_id": 300025247}}, {"type": "Feature", "geometry": {"type": "Point", "coordinates": [-2.5838283, 51.458664]}, "properties": {"node_id": 302794082}}, {"type": "Feature", "geometry": {"type": "Point", "coordinates": [-2.5803047, 51.4637576]}, "properties": {"node_id": 358460226}}, {"type": "Feature", "geometry": {"type": "Point", "coordinates": [-2.5854567, 51.4616145]}, "properties": {"node_id": 364165239}}, {"type": "Feature", "geometry": {"type": "Point", "coordinates": [-2.585654, 51.4618776]}, "properties": {"node_id": 364165242}}, {"type": "Feature", "geometry": {"type": "Point", "coordinates": [-2.5845136, 51.4603465]}, "properties": {"node_id": 364165243}}, {"type": "Feature", "geometry": {"type": "Point", "coordinates": [-2.5840459, 51.459565]}, "properties": {"node_id": 364165249}}, {"type": "Feature", "geometry": {"type": "Point", "coordinates": [-2.591114, 51.4605378]}, "properties": {"node_id": 364165253}}, {"type": "Feature", "geometry": {"type": "Point", "coordinates": [-2.5891498, 51.4614215]}, "properties": {"node_id": 364165254}}, {"type": "Feature", "geometry": {"type": "Point", "coordinates": [-2.5913488, 51.4569937]}, "properties": {"node_id": 365559371}}, {"type": "Feature", "geometry": {"type": "Point", "coordinates": [-2.5903977, 51.4618964]}, "properties": {"node_id": 365559388}}, {"type": "Feature", "geometry": {"type": "Point", "coordinates": [-2.5803731, 51.4571592]}, "properties": {"node_id": 366664563}}, {"type": "Feature", "geometry": {"type": "Point", "coordinates": [-2.5914223, 51.4609474]}, "properties": {"node_id": 374166815}}, {"type": "Feature", "geometry": {"type": "Point", "coordinates": [-2.5841639, 51.4594253]}, "properties": {"node_id": 385560628}}, {"type": "Feature", "geometry": {"type": "Point", "coordinates": [-2.5910454, 51.4581015]}, "properties": {"node_id": 435846358}}, {"type": "Feature", "geometry": {"type": "Point", "coordinates": [-2.5837864, 51.4594676]}, "properties": {"node_id": 436181749}}, {"type": "Feature", "geometry": {"type": "Point", "coordinates": [-2.5809042, 51.4640625]}, "properties": {"node_id": 462979246}}, {"type": "Feature", "geometry": {"type": "Point", "coordinates": [-2.5846996, 51.4592974]}, "properties": {"node_id": 492212322}}, {"type": "Feature", "geometry": {"type": "Point", "coordinates": [-2.5849638, 51.4573287]}, "properties": {"node_id": 492221099}}, {"type": "Feature", "geometry": {"type": "Point", "coordinates": [-2.5831649, 51.4567022]}, "properties": {"node_id": 537141811}}, {"type": "Feature", "geometry": {"type": "Point", "coordinates": [-2.5813786, 51.4574975]}, "properties": {"node_id": 537157926}}, {"type": "Feature", "geometry": {"type": "Point", "coordinates": [-2.5821158, 51.4569378]}, "properties": {"node_id": 537157945}}, {"type": "Feature", "geometry": {"type": "Point", "coordinates": [-2.5815124, 51.4570515]}, "properties": {"node_id": 537157950}}, {"type": "Feature", "geometry": {"type": "Point", "coordinates": [-2.5907039, 51.4598269]}, "properties": {"node_id": 644926923}}, {"type": "Feature", "geometry": {"type": "Point", "coordinates": [-2.5908448, 51.4599127]}, "properties": {"node_id": 644926968}}, {"type": "Feature", "geometry": {"type": "Point", "coordinates": [-2.5913149, 51.4597161]}, "properties": {"node_id": 645089694}}, {"type": "Feature", "geometry": {"type": "Point", "coordinates": [-2.5914116, 51.4597097]}, "properties": {"node_id": 645089696}}, {"type": "Feature", "geometry": {"type": "Point", "coordinates": [-2.5910916, 51.4597784]}, "properties": {"node_id": 645089708}}, {"type": "Feature", "geometry": {"type": "Point", "coordinates": [-2.5909508, 51.4598628]}, "properties": {"node_id": 645089711}}, {"type": "Feature", "geometry": {"type": "Point", "coordinates": [-2.5900846, 51.4591941]}, "properties": {"node_id": 645089864}}, {"type": "Feature", "geometry": {"type": "Point", "coordinates": [-2.585815, 51.4564686]}, "properties": {"node_id": 826648017}}, {"type": "Feature", "geometry": {"type": "Point", "coordinates": [-2.586109, 51.4566346]}, "properties": {"node_id": 826648042}}, {"type": "Feature", "geometry": {"type": "Point", "coordinates": [-2.5866044, 51.4568002]}, "properties": {"node_id": 826648048}}, {"type": "Feature", "geometry": {"type": "Point", "coordinates": [-2.5840801, 51.4584762]}, "properties": {"node_id": 826736676}}, {"type": "Feature", "geometry": {"type": "Point", "coordinates": [-2.5830332, 51.4635929]}, "properties": {"node_id": 835468054}}, {"type": "Feature", "geometry": {"type": "Point", "coordinates": [-2.5841821, 51.4628803]}, "properties": {"node_id": 835468055}}, {"type": "Feature", "geometry": {"type": "Point", "coordinates": [-2.5838013, 51.4626429]}, "properties": {"node_id": 835468057}}, {"type": "Feature", "geometry": {"type": "Point", "coordinates": [-2.5819464, 51.4641871]}, "properties": {"node_id": 835468061}}, {"type": "Feature", "geometry": {"type": "Point", "coordinates": [-2.5815921, 51.4644144]}, "properties": {"node_id": 835468062}}, {"type": "Feature", "geometry": {"type": "Point", "coordinates": [-2.5813795, 51.4638274]}, "properties": {"node_id": 835468063}}, {"type": "Feature", "geometry": {"type": "Point", "coordinates": [-2.5831765, 51.459813]}, "properties": {"node_id": 835468169}}, {"type": "Feature", "geometry": {"type": "Point", "coordinates": [-2.5822093, 51.4635731]}, "properties": {"node_id": 859323002}}, {"type": "Feature", "geometry": {"type": "Point", "coordinates": [-2.583444, 51.4633434]}, "properties": {"node_id": 859323020}}, {"type": "Feature", "geometry": {"type": "Point", "coordinates": [-2.5826171, 51.4629811]}, "properties": {"node_id": 859323023}}, {"type": "Feature", "geometry": {"type": "Point", "coordinates": [-2.58298, 51.4623657]}, "properties": {"node_id": 859323047}}, {"type": "Feature", "geometry": {"type": "Point", "coordinates": [-2.582409, 51.4634488]}, "properties": {"node_id": 859323050}}, {"type": "Feature", "geometry": {"type": "Point", "coordinates": [-2.5847023, 51.4606087]}, "properties": {"node_id": 859323057}}, {"type": "Feature", "geometry": {"type": "Point", "coordinates": [-2.5895087, 51.4617437]}, "properties": {"node_id": 859323071}}, {"type": "Feature", "geometry": {"type": "Point", "coordinates": [-2.5817001, 51.4630511]}, "properties": {"node_id": 859323083}}, {"type": "Feature", "geometry": {"type": "Point", "coordinates": [-2.5832225, 51.4637408]}, "properties": {"node_id": 859323097}}, {"type": "Feature", "geometry": {"type": "Point", "coordinates": [-2.5815839, 51.4636405]}, "properties": {"node_id": 859323102}}, {"type": "Feature", "geometry": {"type": "Point", "coordinates": [-2.5849499, 51.4609461]}, "properties": {"node_id": 859323119}}, {"type": "Feature", "geometry": {"type": "Point", "coordinates": [-2.5861067, 51.4609613]}, "properties": {"node_id": 859323141}}, {"type": "Feature", "geometry": {"type": "Point", "coordinates": [-2.5821265, 51.4633076]}, "properties": {"node_id": 859323146}}, {"type": "Feature", "geometry": {"type": "Point", "coordinates": [-2.5851028, 51.460695]}, "properties": {"node_id": 859323159}}, {"type": "Feature", "geometry": {"type": "Point", "coordinates": [-2.5885168, 51.4617216]}, "properties": {"node_id": 859323162}}, {"type": "Feature", "geometry": {"type": "Point", "coordinates": [-2.5859738, 51.4612605]}, "properties": {"node_id": 859323188}}, {"type": "Feature", "geometry": {"type": "Point", "coordinates": [-2.5883204, 51.4623002]}, "properties": {"node_id": 859323223}}, {"type": "Feature", "geometry": {"type": "Point", "coordinates": [-2.5837332, 51.4636909]}, "properties": {"node_id": 859323256}}, {"type": "Feature", "geometry": {"type": "Point", "coordinates": [-2.5821237, 51.4640743]}, "properties": {"node_id": 859323259}}, {"type": "Feature", "geometry": {"type": "Point", "coordinates": [-2.5819125, 51.4638118]}, "properties": {"node_id": 859323296}}, {"type": "Feature", "geometry": {"type": "Point", "coordinates": [-2.5922092, 51.4638742]}, "properties": {"node_id": 943619136}}, {"type": "Feature", "geometry": {"type": "Point", "coordinates": [-2.5889848, 51.4588096]}, "properties": {"node_id": 993186001}}, {"type": "Feature", "geometry": {"type": "Point", "coordinates": [-2.5920878, 51.4627037]}, "properties": {"node_id": 1079382140}}, {"type": "Feature", "geometry": {"type": "Point", "coordinates": [-2.5911706, 51.4629527]}, "properties": {"node_id": 1079382178}}, {"type": "Feature", "geometry": {"type": "Point", "coordinates": [-2.591819, 51.4625406]}, "properties": {"node_id": 1079382215}}, {"type": "Feature", "geometry": {"type": "Point", "coordinates": [-2.59215, 51.4628345]}, "properties": {"node_id": 1079382229}}, {"type": "Feature", "geometry": {"type": "Point", "coordinates": [-2.5901013, 51.4620844]}, "properties": {"node_id": 1079986909}}, {"type": "Feature", "geometry": {"type": "Point", "coordinates": [-2.5907034, 51.4633056]}, "properties": {"node_id": 1080015181}}, {"type": "Feature", "geometry": {"type": "Point", "coordinates": [-2.5904238, 51.4639889]}, "properties": {"node_id": 1080015188}}, {"type": "Feature", "geometry": {"type": "Point", "coordinates": [-2.5911735, 51.4608522]}, "properties": {"node_id": 1081318790}}, {"type": "Feature", "geometry": {"type": "Point", "coordinates": [-2.5908412, 51.4640889]}, "properties": {"node_id": 1081318805}}, {"type": "Feature", "geometry": {"type": "Point", "coordinates": [-2.5909592, 51.4640987]}, "properties": {"node_id": 1081318900}}, {"type": "Feature", "geometry": {"type": "Point", "coordinates": [-2.5921504, 51.4623128]}, "properties": {"node_id": 1227136451}}, {"type": "Feature", "geometry": {"type": "Point", "coordinates": [-2.5914505, 51.4619156]}, "properties": {"node_id": 1227136503}}, {"type": "Feature", "geometry": {"type": "Point", "coordinates": [-2.582092, 51.4602576]}, "properties": {"node_id": 1242132572}}, {"type": "Feature", "geometry": {"type": "Point", "coordinates": [-2.5824038, 51.4604908]}, "properties": {"node_id": 1242132577}}, {"type": "Feature", "geometry": {"type": "Point", "coordinates": [-2.5822096, 51.4602002]}, "properties": {"node_id": 1242132578}}, {"type": "Feature", "geometry": {"type": "Point", "coordinates": [-2.5812664, 51.4610797]}, "properties": {"node_id": 1242132583}}, {"type": "Feature", "geometry": {"type": "Point", "coordinates": [-2.5828171, 51.4598432]}, "properties": {"node_id": 1242132603}}, {"type": "Feature", "geometry": {"type": "Point", "coordinates": [-2.5821657, 51.4602643]}, "properties": {"node_id": 1242132604}}, {"type": "Feature", "geometry": {"type": "Point", "coordinates": [-2.5907464, 51.462077]}, "properties": {"node_id": 1247760876}}, {"type": "Feature", "geometry": {"type": "Point", "coordinates": [-2.5906917, 51.4621173]}, "properties": {"node_id": 1247760905}}, {"type": "Feature", "geometry": {"type": "Point", "coordinates": [-2.5908345, 51.4621265]}, "properties": {"node_id": 1247760948}}, {"type": "Feature", "geometry": {"type": "Point", "coordinates": [-2.5909029, 51.4620329]}, "properties": {"node_id": 1247761041}}, {"type": "Feature", "geometry": {"type": "Point", "coordinates": [-2.5907169, 51.4603063]}, "properties": {"node_id": 1247826786}}, {"type": "Feature", "geometry": {"type": "Point", "coordinates": [-2.5905964, 51.4603385]}, "properties": {"node_id": 1247826811}}, {"type": "Feature", "geometry": {"type": "Point", "coordinates": [-2.5899505, 51.4595861]}, "properties": {"node_id": 1247839593}}, {"type": "Feature", "geometry": {"type": "Point", "coordinates": [-2.5863133, 51.4607454]}, "properties": {"node_id": 1247839597}}, {"type": "Feature", "geometry": {"type": "Point", "coordinates": [-2.5828923, 51.4573318]}, "properties": {"node_id": 1280267492}}, {"type": "Feature", "geometry": {"type": "Point", "coordinates": [-2.5824313, 51.4574538]}, "properties": {"node_id": 1280267499}}, {"type": "Feature", "geometry": {"type": "Point", "coordinates": [-2.5810657, 51.4571724]}, "properties": {"node_id": 1280267501}}, {"type": "Feature", "geometry": {"type": "Point", "coordinates": [-2.5824377, 51.4569773]}, "properties": {"node_id": 1280267505}}, {"type": "Feature", "geometry": {"type": "Point", "coordinates": [-2.5839677, 51.4574774]}, "properties": {"node_id": 1280269104}}, {"type": "Feature", "geometry": {"type": "Point", "coordinates": [-2.5833459, 51.4570967]}, "properties": {"node_id": 1280269110}}, {"type": "Feature", "geometry": {"type": "Point", "coordinates": [-2.584744, 51.4570008]}, "properties": {"node_id": 1280281136}}, {"type": "Feature", "geometry": {"type": "Point", "coordinates": [-2.5835423, 51.4585614]}, "properties": {"node_id": 1280656209}}, {"type": "Feature", "geometry": {"type": "Point", "coordinates": [-2.5840166, 51.4594885]}, "properties": {"node_id": 1280674364}}, {"type": "Feature", "geometry": {"type": "Point", "coordinates": [-2.5823682, 51.4594989]}, "properties": {"node_id": 1280674367}}, {"type": "Feature", "geometry": {"type": "Point", "coordinates": [-2.5838986, 51.4595955]}, "properties": {"node_id": 1280674371}}, {"type": "Feature", "geometry": {"type": "Point", "coordinates": [-2.5825556, 51.4593567]}, "properties": {"node_id": 1280674386}}, {"type": "Feature", "geometry": {"type": "Point", "coordinates": [-2.5826803, 51.4576915]}, "properties": {"node_id": 1280813702}}, {"type": "Feature", "geometry": {"type": "Point", "coordinates": [-2.5813516, 51.4582724]}, "properties": {"node_id": 1280813726}}, {"type": "Feature", "geometry": {"type": "Point", "coordinates": [-2.5803905, 51.4581867]}, "properties": {"node_id": 1280813728}}, {"type": "Feature", "geometry": {"type": "Point", "coordinates": [-2.5831687, 51.4586136]}, "properties": {"node_id": 1280821651}}, {"type": "Feature", "geometry": {"type": "Point", "coordinates": [-2.5811121, 51.4596192]}, "properties": {"node_id": 1280821682}}, {"type": "Feature", "geometry": {"type": "Point", "coordinates": [-2.5836972, 51.4583495]}, "properties": {"node_id": 1280821702}}, {"type": "Feature", "geometry": {"type": "Point", "coordinates": [-2.5813726, 51.4597703]}, "properties": {"node_id": 1280821711}}, {"type": "Feature", "geometry": {"type": "Point", "coordinates": [-2.5816357, 51.4590308]}, "properties": {"node_id": 1280821715}}, {"type": "Feature", "geometry": {"type": "Point", "coordinates": [-2.5814868, 51.4591537]}, "properties": {"node_id": 1280821716}}, {"type": "Feature", "geometry": {"type": "Point", "coordinates": [-2.5832981, 51.4582716]}, "properties": {"node_id": 1280821720}}, {"type": "Feature", "geometry": {"type": "Point", "coordinates": [-2.5907958, 51.45899]}, "properties": {"node_id": 1280853173}}, {"type": "Feature", "geometry": {"type": "Point", "coordinates": [-2.5904192, 51.459987]}, "properties": {"node_id": 1280853180}}, {"type": "Feature", "geometry": {"type": "Point", "coordinates": [-2.5906746, 51.4603191]}, "properties": {"node_id": 1280853181}}, {"type": "Feature", "geometry": {"type": "Point", "coordinates": [-2.5901332, 51.4598028]}, "properties": {"node_id": 1280853184}}, {"type": "Feature", "geometry": {"type": "Point", "coordinates": [-2.5902843, 51.4598982]}, "properties": {"node_id": 1280853191}}, {"type": "Feature", "geometry": {"type": "Point", "coordinates": [-2.5904984, 51.4599676]}, "properties": {"node_id": 1280853193}}, {"type": "Feature", "geometry": {"type": "Point", "coordinates": [-2.5904855, 51.459834]}, "properties": {"node_id": 1280853195}}, {"type": "Feature", "geometry": {"type": "Point", "coordinates": [-2.5910192, 51.4598495]}, "properties": {"node_id": 1281268388}}, {"type": "Feature", "geometry": {"type": "Point", "coordinates": [-2.5912532, 51.4593155]}, "properties": {"node_id": 1281294900}}, {"type": "Feature", "geometry": {"type": "Point", "coordinates": [-2.5908559, 51.4611385]}, "properties": {"node_id": 1281318363}}, {"type": "Feature", "geometry": {"type": "Point", "coordinates": [-2.5799385, 51.4614193]}, "properties": {"node_id": 1282009243}}, {"type": "Feature", "geometry": {"type": "Point", "coordinates": [-2.579797, 51.4615504]}, "properties": {"node_id": 1282009249}}, {"type": "Feature", "geometry": {"type": "Point", "coordinates": [-2.5793249, 51.4627491]}, "properties": {"node_id": 1282135928}}, {"type": "Feature", "geometry": {"type": "Point", "coordinates": [-2.5793882, 51.4627759]}, "properties": {"node_id": 1297069020}}, {"type": "Feature", "geometry": {"type": "Point", "coordinates": [-2.5892123, 51.4594016]}, "properties": {"node_id": 1382113164}}, {"type": "Feature", "geometry": {"type": "Point", "coordinates": [-2.5906244, 51.4582572]}, "properties": {"node_id": 1382113262}}, {"type": "Feature", "geometry": {"type": "Point", "coordinates": [-2.5886249, 51.4565061]}, "properties": {"node_id": 1382239390}}, {"type": "Feature", "geometry": {"type": "Point", "coordinates": [-2.5911335, 51.4588197]}, "properties": {"node_id": 1382252976}}, {"type": "Feature", "geometry": {"type": "Point", "coordinates": [-2.5807172, 51.4572429]}, "properties": {"node_id": 1500366483}}, {"type": "Feature", "geometry": {"type": "Point", "coordinates": [-2.5796845, 51.4624764]}, "properties": {"node_id": 1722968878}}, {"type": "Feature", "geometry": {"type": "Point", "coordinates": [-2.5800337, 51.4625108]}, "properties": {"node_id": 1722968881}}, {"type": "Feature", "geometry": {"type": "Point", "coordinates": [-2.5799636, 51.4625874]}, "properties": {"node_id": 1722968890}}, {"type": "Feature", "geometry": {"type": "Point", "coordinates": [-2.5796152, 51.4629682]}, "properties": {"node_id": 1722968925}}, {"type": "Feature", "geometry": {"type": "Point", "coordinates": [-2.5853622, 51.4606892]}, "properties": {"node_id": 1968413548}}, {"type": "Feature", "geometry": {"type": "Point", "coordinates": [-2.5858885, 51.4608778]}, "properties": {"node_id": 1968413560}}, {"type": "Feature", "geometry": {"type": "Point", "coordinates": [-2.5851946, 51.4610248]}, "properties": {"node_id": 1968413567}}, {"type": "Feature", "geometry": {"type": "Point", "coordinates": [-2.5856942, 51.461245]}, "properties": {"node_id": 1968413578}}, {"type": "Feature", "geometry": {"type": "Point", "coordinates": [-2.584674, 51.4577391]}, "properties": {"node_id": 2027862783}}, {"type": "Feature", "geometry": {"type": "Point", "coordinates": [-2.5920071, 51.4579067]}, "properties": {"node_id": 2043096348}}, {"type": "Feature", "geometry": {"type": "Point", "coordinates": [-2.5871231, 51.4587639]}, "properties": {"node_id": 2043096366}}, {"type": "Feature", "geometry": {"type": "Point", "coordinates": [-2.5912675, 51.4576164]}, "properties": {"node_id": 2045184007}}, {"type": "Feature", "geometry": {"type": "Point", "coordinates": [-2.591126, 51.4576579]}, "properties": {"node_id": 2045184010}}, {"type": "Feature", "geometry": {"type": "Point", "coordinates": [-2.5833648, 51.4577068]}, "properties": {"node_id": 2045184012}}, {"type": "Feature", "geometry": {"type": "Point", "coordinates": [-2.5910488, 51.4576779]}, "properties": {"node_id": 2045184014}}, {"type": "Feature", "geometry": {"type": "Point", "coordinates": [-2.5913606, 51.4580144]}, "properties": {"node_id": 2045184023}}, {"type": "Feature", "geometry": {"type": "Point", "coordinates": [-2.5841286, 51.458409]}, "properties": {"node_id": 2130610640}}, {"type": "Feature", "geometry": {"type": "Point", "coordinates": [-2.5870988, 51.4595231]}, "properties": {"node_id": 2179076266}}, {"type": "Feature", "geometry": {"type": "Point", "coordinates": [-2.5871779, 51.4595251]}, "properties": {"node_id": 2179076283}}, {"type": "Feature", "geometry": {"type": "Point", "coordinates": [-2.585414, 51.4593946]}, "properties": {"node_id": 2179076344}}, {"type": "Feature", "geometry": {"type": "Point", "coordinates": [-2.5856541, 51.4594507]}, "properties": {"node_id": 2179076449}}, {"type": "Feature", "geometry": {"type": "Point", "coordinates": [-2.5864477, 51.4596216]}, "properties": {"node_id": 2179076472}}, {"type": "Feature", "geometry": {"type": "Point", "coordinates": [-2.5854667, 51.4600774]}, "properties": {"node_id": 2179076476}}, {"type": "Feature", "geometry": {"type": "Point", "coordinates": [-2.586501, 51.4594575]}, "properties": {"node_id": 2179076479}}, {"type": "Feature", "geometry": {"type": "Point", "coordinates": [-2.5850318, 51.4594907]}, "properties": {"node_id": 2179076502}}, {"type": "Feature", "geometry": {"type": "Point", "coordinates": [-2.5862775, 51.4596881]}, "properties": {"node_id": 2179076532}}, {"type": "Feature", "geometry": {"type": "Point", "coordinates": [-2.5868746, 51.4597587]}, "properties": {"node_id": 2179077577}}, {"type": "Feature", "geometry": {"type": "Point", "coordinates": [-2.5848717, 51.4602454]}, "properties": {"node_id": 2204308507}}, {"type": "Feature", "geometry": {"type": "Point", "coordinates": [-2.5850581, 51.4601928]}, "properties": {"node_id": 2204308509}}, {"type": "Feature", "geometry": {"type": "Point", "coordinates": [-2.5904083, 51.4582058]}, "properties": {"node_id": 2268865236}}, {"type": "Feature", "geometry": {"type": "Point", "coordinates": [-2.5829173, 51.4631617]}, "properties": {"node_id": 2433742220}}, {"type": "Feature", "geometry": {"type": "Point", "coordinates": [-2.5813233, 51.4637959]}, "properties": {"node_id": 2433742262}}, {"type": "Feature", "geometry": {"type": "Point", "coordinates": [-2.5830433, 51.4631107]}, "properties": {"node_id": 2433744230}}, {"type": "Feature", "geometry": {"type": "Point", "coordinates": [-2.5827016, 51.463032]}, "properties": {"node_id": 2433744231}}, {"type": "Feature", "geometry": {"type": "Point", "coordinates": [-2.582288, 51.4626297]}, "properties": {"node_id": 2433744233}}, {"type": "Feature", "geometry": {"type": "Point", "coordinates": [-2.5832418, 51.4623001]}, "properties": {"node_id": 2433744240}}, {"type": "Feature", "geometry": {"type": "Point", "coordinates": [-2.5828128, 51.4628543]}, "properties": {"node_id": 2433744248}}, {"type": "Feature", "geometry": {"type": "Point", "coordinates": [-2.5837445, 51.4631549]}, "properties": {"node_id": 2433764623}}, {"type": "Feature", "geometry": {"type": "Point", "coordinates": [-2.584224, 51.4611616]}, "properties": {"node_id": 2433764639}}, {"type": "Feature", "geometry": {"type": "Point", "coordinates": [-2.58292, 51.4627849]}, "properties": {"node_id": 2433764650}}, {"type": "Feature", "geometry": {"type": "Point", "coordinates": [-2.5834524, 51.4627089]}, "properties": {"node_id": 2433764668}}, {"type": "Feature", "geometry": {"type": "Point", "coordinates": [-2.5835709, 51.4613704]}, "properties": {"node_id": 2433764671}}, {"type": "Feature", "geometry": {"type": "Point", "coordinates": [-2.5835751, 51.4627861]}, "properties": {"node_id": 2433764693}}, {"type": "Feature", "geometry": {"type": "Point", "coordinates": [-2.5827985, 51.4635481]}, "properties": {"node_id": 2433764735}}, {"type": "Feature", "geometry": {"type": "Point", "coordinates": [-2.5824974, 51.4634341]}, "properties": {"node_id": 2433764738}}, {"type": "Feature", "geometry": {"type": "Point", "coordinates": [-2.583738, 51.4614563]}, "properties": {"node_id": 2433764742}}, {"type": "Feature", "geometry": {"type": "Point", "coordinates": [-2.5836777, 51.4625626]}, "properties": {"node_id": 2433764756}}, {"type": "Feature", "geometry": {"type": "Point", "coordinates": [-2.5826089, 51.4637696]}, "properties": {"node_id": 2433764759}}, {"type": "Feature", "geometry": {"type": "Point", "coordinates": [-2.5838462, 51.4615201]}, "properties": {"node_id": 2433764766}}, {"type": "Feature", "geometry": {"type": "Point", "coordinates": [-2.5833018, 51.4632405]}, "properties": {"node_id": 2433764788}}, {"type": "Feature", "geometry": {"type": "Point", "coordinates": [-2.5838657, 51.4615099]}, "properties": {"node_id": 2433764834}}, {"type": "Feature", "geometry": {"type": "Point", "coordinates": [-2.5833536, 51.4632779]}, "properties": {"node_id": 2433764852}}, {"type": "Feature", "geometry": {"type": "Point", "coordinates": [-2.5837394, 51.461524]}, "properties": {"node_id": 2433764880}}, {"type": "Feature", "geometry": {"type": "Point", "coordinates": [-2.5835771, 51.4631408]}, "properties": {"node_id": 2433764891}}, {"type": "Feature", "geometry": {"type": "Point", "coordinates": [-2.583158, 51.4629002]}, "properties": {"node_id": 2433764893}}, {"type": "Feature", "geometry": {"type": "Point", "coordinates": [-2.5827174, 51.4635828]}, "properties": {"node_id": 2433764901}}, {"type": "Feature", "geometry": {"type": "Point", "coordinates": [-2.5840492, 51.4617438]}, "properties": {"node_id": 2433764912}}, {"type": "Feature", "geometry": {"type": "Point", "coordinates": [-2.584964, 51.4609654]}, "properties": {"node_id": 2433778866}}, {"type": "Feature", "geometry": {"type": "Point", "coordinates": [-2.5859193, 51.4607236]}, "properties": {"node_id": 2433778870}}, {"type": "Feature", "geometry": {"type": "Point", "coordinates": [-2.5855161, 51.4605919]}, "properties": {"node_id": 2433778872}}, {"type": "Feature", "geometry": {"type": "Point", "coordinates": [-2.5857257, 51.4604073]}, "properties": {"node_id": 2433778874}}, {"type": "Feature", "geometry": {"type": "Point", "coordinates": [-2.5854163, 51.4615582]}, "properties": {"node_id": 2433779947}}, {"type": "Feature", "geometry": {"type": "Point", "coordinates": [-2.5856669, 51.4613481]}, "properties": {"node_id": 2433779953}}, {"type": "Feature", "geometry": {"type": "Point", "coordinates": [-2.5841445, 51.4595424]}, "properties": {"node_id": 2433821534}}, {"type": "Feature", "geometry": {"type": "Point", "coordinates": [-2.5841133, 51.4594704]}, "properties": {"node_id": 2433821535}}, {"type": "Feature", "geometry": {"type": "Point", "coordinates": [-2.5842405, 51.4593539]}, "properties": {"node_id": 2433821537}}, {"type": "Feature", "geometry": {"type": "Point", "coordinates": [-2.5841194, 51.4598294]}, "properties": {"node_id": 2433821542}}, {"type": "Feature", "geometry": {"type": "Point", "coordinates": [-2.5842825, 51.4597636]}, "properties": {"node_id": 2433821544}}, {"type": "Feature", "geometry": {"type": "Point", "coordinates": [-2.5891627, 51.4592088]}, "properties": {"node_id": 2433863938}}, {"type": "Feature", "geometry": {"type": "Point", "coordinates": [-2.5874385, 51.4611189]}, "properties": {"node_id": 2515293875}}, {"type": "Feature", "geometry": {"type": "Point", "coordinates": [-2.5873054, 51.461096]}, "properties": {"node_id": 2515293876}}, {"type": "Feature", "geometry": {"type": "Point", "coordinates": [-2.5878103, 51.4609174]}, "properties": {"node_id": 2515293881}}, {"type": "Feature", "geometry": {"type": "Point", "coordinates": [-2.5830821, 51.4571872]}, "properties": {"node_id": 2519732440}}, {"type": "Feature", "geometry": {"type": "Point", "coordinates": [-2.5841624, 51.457938]}, "properties": {"node_id": 2533775204}}, {"type": "Feature", "geometry": {"type": "Point", "coordinates": [-2.5829467, 51.458248]}, "properties": {"node_id": 2533775206}}, {"type": "Feature", "geometry": {"type": "Point", "coordinates": [-2.5905331, 51.457372]}, "properties": {"node_id": 2627428303}}, {"type": "Feature", "geometry": {"type": "Point", "coordinates": [-2.5921642, 51.4613967]}, "properties": {"node_id": 2743760828}}, {"type": "Feature", "geometry": {"type": "Point", "coordinates": [-2.5882186, 51.462216]}, "properties": {"node_id": 2882617932}}, {"type": "Feature", "geometry": {"type": "Point", "coordinates": [-2.5880269, 51.4624689]}, "properties": {"node_id": 2882617940}}, {"type": "Feature", "geometry": {"type": "Point", "coordinates": [-2.589061, 51.4594061]}, "properties": {"node_id": 2920948564}}, {"type": "Feature", "geometry": {"type": "Point", "coordinates": [-2.5890621, 51.45949]}, "properties": {"node_id": 2920948566}}, {"type": "Feature", "geometry": {"type": "Point", "coordinates": [-2.5879118, 51.4570036]}, "properties": {"node_id": 2941119309}}, {"type": "Feature", "geometry": {"type": "Point", "coordinates": [-2.5896134, 51.4567967]}, "properties": {"node_id": 3307418825}}, {"type": "Feature", "geometry": {"type": "Point", "coordinates": [-2.591123, 51.4593456]}, "properties": {"node_id": 3329881928}}, {"type": "Feature", "geometry": {"type": "Point", "coordinates": [-2.5907255, 51.4594505]}, "properties": {"node_id": 3329881929}}, {"type": "Feature", "geometry": {"type": "Point", "coordinates": [-2.5907851, 51.4604684]}, "properties": {"node_id": 3332266263}}, {"type": "Feature", "geometry": {"type": "Point", "coordinates": [-2.5912218, 51.4605179]}, "properties": {"node_id": 3332266267}}, {"type": "Feature", "geometry": {"type": "Point", "coordinates": [-2.5911841, 51.460446]}, "properties": {"node_id": 3332266269}}, {"type": "Feature", "geometry": {"type": "Point", "coordinates": [-2.5908274, 51.4605336]}, "properties": {"node_id": 3332266270}}, {"type": "Feature", "geometry": {"type": "Point", "coordinates": [-2.5908938, 51.4605173]}, "properties": {"node_id": 3332266271}}, {"type": "Feature", "geometry": {"type": "Point", "coordinates": [-2.5910909, 51.4604689]}, "properties": {"node_id": 3332266272}}, {"type": "Feature", "geometry": {"type": "Point", "coordinates": [-2.5831928, 51.4628776]}, "properties": {"node_id": 3546758138}}, {"type": "Feature", "geometry": {"type": "Point", "coordinates": [-2.5906137, 51.4599394]}, "properties": {"node_id": 3696173720}}, {"type": "Feature", "geometry": {"type": "Point", "coordinates": [-2.5853154, 51.4606319]}, "properties": {"node_id": 3811627140}}, {"type": "Feature", "geometry": {"type": "Point", "coordinates": [-2.5850493, 51.4610633]}, "properties": {"node_id": 3811627143}}, {"type": "Feature", "geometry": {"type": "Point", "coordinates": [-2.5857532, 51.4613235]}, "properties": {"node_id": 3811627145}}, {"type": "Feature", "geometry": {"type": "Point", "coordinates": [-2.5847497, 51.4588726]}, "properties": {"node_id": 3842753611}}, {"type": "Feature", "geometry": {"type": "Point", "coordinates": [-2.5838939, 51.4595031]}, "properties": {"node_id": 3860745715}}, {"type": "Feature", "geometry": {"type": "Point", "coordinates": [-2.5841455, 51.4596184]}, "properties": {"node_id": 3860745718}}, {"type": "Feature", "geometry": {"type": "Point", "coordinates": [-2.5824556, 51.4605417]}, "properties": {"node_id": 3860786634}}, {"type": "Feature", "geometry": {"type": "Point", "coordinates": [-2.5840679, 51.4579109]}, "properties": {"node_id": 3860810901}}, {"type": "Feature", "geometry": {"type": "Point", "coordinates": [-2.5849869, 51.4594232]}, "properties": {"node_id": 3860890364}}, {"type": "Feature", "geometry": {"type": "Point", "coordinates": [-2.5851507, 51.4594589]}, "properties": {"node_id": 3860890366}}, {"type": "Feature", "geometry": {"type": "Point", "coordinates": [-2.5870399, 51.4595192]}, "properties": {"node_id": 3860890367}}, {"type": "Feature", "geometry": {"type": "Point", "coordinates": [-2.5869765, 51.4592277]}, "properties": {"node_id": 3860890371}}, {"type": "Feature", "geometry": {"type": "Point", "coordinates": [-2.5880821, 51.459523]}, "properties": {"node_id": 3860908591}}, {"type": "Feature", "geometry": {"type": "Point", "coordinates": [-2.589147, 51.4594872]}, "properties": {"node_id": 3860908593}}, {"type": "Feature", "geometry": {"type": "Point", "coordinates": [-2.5897536, 51.4595842]}, "properties": {"node_id": 3860908599}}, {"type": "Feature", "geometry": {"type": "Point", "coordinates": [-2.5901855, 51.462178]}, "properties": {"node_id": 3860964491}}, {"type": "Feature", "geometry": {"type": "Point", "coordinates": [-2.5800025, 51.4566269]}, "properties": {"node_id": 3893231912}}, {"type": "Feature", "geometry": {"type": "Point", "coordinates": [-2.5798558, 51.456479]}, "properties": {"node_id": 3893231913}}, {"type": "Feature", "geometry": {"type": "Point", "coordinates": [-2.5820606, 51.4641195]}, "properties": {"node_id": 3980721920}}, {"type": "Feature", "geometry": {"type": "Point", "coordinates": [-2.582056, 51.4642475]}, "properties": {"node_id": 3980721930}}, {"type": "Feature", "geometry": {"type": "Point", "coordinates": [-2.5820544, 51.4643025]}, "properties": {"node_id": 3980721932}}, {"type": "Feature", "geometry": {"type": "Point", "coordinates": [-2.5823035, 51.4642999]}, "properties": {"node_id": 3980721933}}, {"type": "Feature", "geometry": {"type": "Point", "coordinates": [-2.5826653, 51.4643102]}, "properties": {"node_id": 3980721934}}, {"type": "Feature", "geometry": {"type": "Point", "coordinates": [-2.5817541, 51.4643058]}, "properties": {"node_id": 3980721935}}, {"type": "Feature", "geometry": {"type": "Point", "coordinates": [-2.5819609, 51.4643035]}, "properties": {"node_id": 3980721951}}, {"type": "Feature", "geometry": {"type": "Point", "coordinates": [-2.5820873, 51.4644538]}, "properties": {"node_id": 3980721955}}, {"type": "Feature", "geometry": {"type": "Point", "coordinates": [-2.5899999, 51.4626939]}, "properties": {"node_id": 4610359742}}, {"type": "Feature", "geometry": {"type": "Point", "coordinates": [-2.5902622, 51.4621929]}, "properties": {"node_id": 4654496416}}, {"type": "Feature", "geometry": {"type": "Point", "coordinates": [-2.5903093, 51.4620585]}, "properties": {"node_id": 4654496419}}, {"type": "Feature", "geometry": {"type": "Point", "coordinates": [-2.585816, 51.4569856]}, "properties": {"node_id": 4661094415}}, {"type": "Feature", "geometry": {"type": "Point", "coordinates": [-2.585966, 51.4571757]}, "properties": {"node_id": 4661094416}}, {"type": "Feature", "geometry": {"type": "Point", "coordinates": [-2.5884995, 51.463667]}, "properties": {"node_id": 4794218446}}, {"type": "Feature", "geometry": {"type": "Point", "coordinates": [-2.5883427, 51.4635426]}, "properties": {"node_id": 4794218449}}, {"type": "Feature", "geometry": {"type": "Point", "coordinates": [-2.5886994, 51.4629685]}, "properties": {"node_id": 4795736874}}, {"type": "Feature", "geometry": {"type": "Point", "coordinates": [-2.5885015, 51.4627938]}, "properties": {"node_id": 4795736877}}, {"type": "Feature", "geometry": {"type": "Point", "coordinates": [-2.5792643, 51.4574648]}, "properties": {"node_id": 4878990036}}, {"type": "Feature", "geometry": {"type": "Point", "coordinates": [-2.579302, 51.4575518]}, "properties": {"node_id": 4878990037}}, {"type": "Feature", "geometry": {"type": "Point", "coordinates": [-2.5793778, 51.4575827]}, "properties": {"node_id": 4878990038}}, {"type": "Feature", "geometry": {"type": "Point", "coordinates": [-2.5794241, 51.4571428]}, "properties": {"node_id": 4878990043}}, {"type": "Feature", "geometry": {"type": "Point", "coordinates": [-2.5826734, 51.4596741]}, "properties": {"node_id": 5061066670}}, {"type": "Feature", "geometry": {"type": "Point", "coordinates": [-2.5822404, 51.4586665]}, "properties": {"node_id": 5061066696}}, {"type": "Feature", "geometry": {"type": "Point", "coordinates": [-2.5820473, 51.458532]}, "properties": {"node_id": 5061067239}}, {"type": "Feature", "geometry": {"type": "Point", "coordinates": [-2.5824286, 51.4583579]}, "properties": {"node_id": 5061067317}}, {"type": "Feature", "geometry": {"type": "Point", "coordinates": [-2.5826032, 51.4584409]}, "properties": {"node_id": 5061067470}}, {"type": "Feature", "geometry": {"type": "Point", "coordinates": [-2.5848111, 51.4592591]}, "properties": {"node_id": 5064786728}}, {"type": "Feature", "geometry": {"type": "Point", "coordinates": [-2.5895789, 51.4593167]}, "properties": {"node_id": 5065034057}}, {"type": "Feature", "geometry": {"type": "Point", "coordinates": [-2.5872472, 51.4596964]}, "properties": {"node_id": 5111590153}}, {"type": "Feature", "geometry": {"type": "Point", "coordinates": [-2.5796264, 51.4565357]}, "properties": {"node_id": 5146144539}}, {"type": "Feature", "geometry": {"type": "Point", "coordinates": [-2.5796369, 51.4573885]}, "properties": {"node_id": 5156816332}}, {"type": "Feature", "geometry": {"type": "Point", "coordinates": [-2.5803653, 51.4572951]}, "properties": {"node_id": 5157651754}}, {"type": "Feature", "geometry": {"type": "Point", "coordinates": [-2.5883319, 51.460852]}, "properties": {"node_id": 5240224447}}, {"type": "Feature", "geometry": {"type": "Point", "coordinates": [-2.5886121, 51.4608043]}, "properties": {"node_id": 5240224448}}, {"type": "Feature", "geometry": {"type": "Point", "coordinates": [-2.5889677, 51.461266]}, "properties": {"node_id": 5240224464}}, {"type": "Feature", "geometry": {"type": "Point", "coordinates": [-2.589082, 51.4612109]}, "properties": {"node_id": 5240224465}}, {"type": "Feature", "geometry": {"type": "Point", "coordinates": [-2.5886428, 51.4616618]}, "properties": {"node_id": 5240224479}}, {"type": "Feature", "geometry": {"type": "Point", "coordinates": [-2.5887032, 51.4617164]}, "properties": {"node_id": 5240224480}}, {"type": "Feature", "geometry": {"type": "Point", "coordinates": [-2.589422, 51.4615217]}, "properties": {"node_id": 5240224497}}, {"type": "Feature", "geometry": {"type": "Point", "coordinates": [-2.5893214, 51.4615719]}, "properties": {"node_id": 5240224498}}, {"type": "Feature", "geometry": {"type": "Point", "coordinates": [-2.5913836, 51.461629]}, "properties": {"node_id": 5359925880}}, {"type": "Feature", "geometry": {"type": "Point", "coordinates": [-2.5916432, 51.4617734]}, "properties": {"node_id": 5359925883}}, {"type": "Feature", "geometry": {"type": "Point", "coordinates": [-2.5861774, 51.4605668]}, "properties": {"node_id": 5423487737}}, {"type": "Feature", "geometry": {"type": "Point", "coordinates": [-2.5804078, 51.460123]}, "properties": {"node_id": 5425642850}}, {"type": "Feature", "geometry": {"type": "Point", "coordinates": [-2.5810094, 51.4599687]}, "properties": {"node_id": 5425642851}}, {"type": "Feature", "geometry": {"type": "Point", "coordinates": [-2.5808903, 51.459891]}, "properties": {"node_id": 5425642852}}, {"type": "Feature", "geometry": {"type": "Point", "coordinates": [-2.5837396, 51.460496]}, "properties": {"node_id": 5435157624}}, {"type": "Feature", "geometry": {"type": "Point", "coordinates": [-2.5837968, 51.4604796]}, "properties": {"node_id": 5435157625}}, {"type": "Feature", "geometry": {"type": "Point", "coordinates": [-2.5836041, 51.4625157]}, "properties": {"node_id": 5438534268}}, {"type": "Feature", "geometry": {"type": "Point", "coordinates": [-2.5835535, 51.4579006]}, "properties": {"node_id": 5448085792}}, {"type": "Feature", "geometry": {"type": "Point", "coordinates": [-2.5836594, 51.4577923]}, "properties": {"node_id": 5448085793}}, {"type": "Feature", "geometry": {"type": "Point", "coordinates": [-2.5897037, 51.4601155]}, "properties": {"node_id": 5750157402}}, {"type": "Feature", "geometry": {"type": "Point", "coordinates": [-2.5900156, 51.4597615]}, "properties": {"node_id": 5750157404}}, {"type": "Feature", "geometry": {"type": "Point", "coordinates": [-2.5825756, 51.460767]}, "properties": {"node_id": 5753086713}}, {"type": "Feature", "geometry": {"type": "Point", "coordinates": [-2.5886556, 51.4588173]}, "properties": {"node_id": 5794635161}}, {"type": "Feature", "geometry": {"type": "Point", "coordinates": [-2.5874108, 51.4585254]}, "properties": {"node_id": 5794635163}}, {"type": "Feature", "geometry": {"type": "Point", "coordinates": [-2.5878367, 51.4584758]}, "properties": {"node_id": 5794635164}}, {"type": "Feature", "geometry": {"type": "Point", "coordinates": [-2.5861338, 51.4567663]}, "properties": {"node_id": 5822644345}}, {"type": "Feature", "geometry": {"type": "Point", "coordinates": [-2.58618, 51.4568211]}, "properties": {"node_id": 5822644348}}, {"type": "Feature", "geometry": {"type": "Point", "coordinates": [-2.5861888, 51.4567956]}, "properties": {"node_id": 5822644358}}, {"type": "Feature", "geometry": {"type": "Point", "coordinates": [-2.5861245, 51.4568363]}, "properties": {"node_id": 5822644360}}, {"type": "Feature", "geometry": {"type": "Point", "coordinates": [-2.5863137, 51.4569149]}, "properties": {"node_id": 5822644363}}, {"type": "Feature", "geometry": {"type": "Point", "coordinates": [-2.5864323, 51.4566871]}, "properties": {"node_id": 5822644367}}, {"type": "Feature", "geometry": {"type": "Point", "coordinates": [-2.5860767, 51.4568]}, "properties": {"node_id": 5822644369}}, {"type": "Feature", "geometry": {"type": "Point", "coordinates": [-2.5856446, 51.4567301]}, "properties": {"node_id": 5822644372}}, {"type": "Feature", "geometry": {"type": "Point", "coordinates": [-2.5911937, 51.4594045]}, "properties": {"node_id": 5823455446}}, {"type": "Feature", "geometry": {"type": "Point", "coordinates": [-2.5906704, 51.4597722]}, "properties": {"node_id": 5823455892}}, {"type": "Feature", "geometry": {"type": "Point", "coordinates": [-2.5793729, 51.461921]}, "properties": {"node_id": 5832538474}}, {"type": "Feature", "geometry": {"type": "Point", "coordinates": [-2.581189, 51.4605775]}, "properties": {"node_id": 5832845865}}, {"type": "Feature", "geometry": {"type": "Point", "coordinates": [-2.5809893, 51.4604717]}, "properties": {"node_id": 5832845867}}, {"type": "Feature", "geometry": {"type": "Point", "coordinates": [-2.5806087, 51.4600402]}, "properties": {"node_id": 5832845874}}, {"type": "Feature", "geometry": {"type": "Point", "coordinates": [-2.5816155, 51.4604803]}, "properties": {"node_id": 5832845881}}, {"type": "Feature", "geometry": {"type": "Point", "coordinates": [-2.5836486, 51.4594928]}, "properties": {"node_id": 5834330053}}, {"type": "Feature", "geometry": {"type": "Point", "coordinates": [-2.5833527, 51.4594579]}, "properties": {"node_id": 5834330054}}, {"type": "Feature", "geometry": {"type": "Point", "coordinates": [-2.5830236, 51.4591512]}, "properties": {"node_id": 5834330055}}, {"type": "Feature", "geometry": {"type": "Point", "coordinates": [-2.5831017, 51.4594022]}, "properties": {"node_id": 5834330057}}, {"type": "Feature", "geometry": {"type": "Point", "coordinates": [-2.5828948, 51.4594757]}, "properties": {"node_id": 5834330058}}, {"type": "Feature", "geometry": {"type": "Point", "coordinates": [-2.5826779, 51.4595498]}, "properties": {"node_id": 5834330062}}, {"type": "Feature", "geometry": {"type": "Point", "coordinates": [-2.5809231, 51.4580373]}, "properties": {"node_id": 5834330502}}, {"type": "Feature", "geometry": {"type": "Point", "coordinates": [-2.581852, 51.4579578]}, "properties": {"node_id": 5834330512}}, {"type": "Feature", "geometry": {"type": "Point", "coordinates": [-2.5806043, 51.4586172]}, "properties": {"node_id": 5834330513}}, {"type": "Feature", "geometry": {"type": "Point", "coordinates": [-2.5807727, 51.4587147]}, "properties": {"node_id": 5834330514}}, {"type": "Feature", "geometry": {"type": "Point", "coordinates": [-2.5803218, 51.4582365]}, "properties": {"node_id": 5834330523}}, {"type": "Feature", "geometry": {"type": "Point", "coordinates": [-2.5799415, 51.4581144]}, "properties": {"node_id": 5834330531}}, {"type": "Feature", "geometry": {"type": "Point", "coordinates": [-2.5826715, 51.4569153]}, "properties": {"node_id": 5834930803}}, {"type": "Feature", "geometry": {"type": "Point", "coordinates": [-2.5825238, 51.4568309]}, "properties": {"node_id": 5834930818}}, {"type": "Feature", "geometry": {"type": "Point", "coordinates": [-2.583014, 51.4577313]}, "properties": {"node_id": 5834930843}}, {"type": "Feature", "geometry": {"type": "Point", "coordinates": [-2.583201, 51.4579541]}, "properties": {"node_id": 5834930877}}, {"type": "Feature", "geometry": {"type": "Point", "coordinates": [-2.5833169, 51.4579855]}, "properties": {"node_id": 5834930878}}, {"type": "Feature", "geometry": {"type": "Point", "coordinates": [-2.5818643, 51.4588741]}, "properties": {"node_id": 5834930880}}, {"type": "Feature", "geometry": {"type": "Point", "coordinates": [-2.581683, 51.4587529]}, "properties": {"node_id": 5834930881}}, {"type": "Feature", "geometry": {"type": "Point", "coordinates": [-2.5813169, 51.4590895]}, "properties": {"node_id": 5834930882}}, {"type": "Feature", "geometry": {"type": "Point", "coordinates": [-2.5813347, 51.4593431]}, "properties": {"node_id": 5834930883}}, {"type": "Feature", "geometry": {"type": "Point", "coordinates": [-2.5881204, 51.4644197]}, "properties": {"node_id": 5900430623}}, {"type": "Feature", "geometry": {"type": "Point", "coordinates": [-2.5884316, 51.4643216]}, "properties": {"node_id": 5900430626}}, {"type": "Feature", "geometry": {"type": "Point", "coordinates": [-2.5899383, 51.4626868]}, "properties": {"node_id": 5905199213}}, {"type": "Feature", "geometry": {"type": "Point", "coordinates": [-2.5899555, 51.4627464]}, "properties": {"node_id": 5905199219}}, {"type": "Feature", "geometry": {"type": "Point", "coordinates": [-2.5874519, 51.4616775]}, "properties": {"node_id": 5906030287}}, {"type": "Feature", "geometry": {"type": "Point", "coordinates": [-2.5873029, 51.4615583]}, "properties": {"node_id": 5906030290}}, {"type": "Feature", "geometry": {"type": "Point", "coordinates": [-2.5865848, 51.4621063]}, "properties": {"node_id": 5906108608}}, {"type": "Feature", "geometry": {"type": "Point", "coordinates": [-2.5864331, 51.461957]}, "properties": {"node_id": 5906108611}}, {"type": "Feature", "geometry": {"type": "Point", "coordinates": [-2.5832342, 51.4579137]}, "properties": {"node_id": 5919438953}}, {"type": "Feature", "geometry": {"type": "Point", "coordinates": [-2.582941, 51.4583737]}, "properties": {"node_id": 5919438954}}, {"type": "Feature", "geometry": {"type": "Point", "coordinates": [-2.5848568, 51.4585657]}, "properties": {"node_id": 5919449192}}, {"type": "Feature", "geometry": {"type": "Point", "coordinates": [-2.5854145, 51.4579288]}, "properties": {"node_id": 5919449198}}, {"type": "Feature", "geometry": {"type": "Point", "coordinates": [-2.584791, 51.4586883]}, "properties": {"node_id": 5919449201}}, {"type": "Feature", "geometry": {"type": "Point", "coordinates": [-2.5870757, 51.458808]}, "properties": {"node_id": 5919449206}}, {"type": "Feature", "geometry": {"type": "Point", "coordinates": [-2.5861884, 51.4574977]}, "properties": {"node_id": 5919449207}}, {"type": "Feature", "geometry": {"type": "Point", "coordinates": [-2.5867832, 51.4572491]}, "properties": {"node_id": 5919449209}}, {"type": "Feature", "geometry": {"type": "Point", "coordinates": [-2.5870702, 51.4571508]}, "properties": {"node_id": 5919449215}}, {"type": "Feature", "geometry": {"type": "Point", "coordinates": [-2.587795, 51.457527]}, "properties": {"node_id": 5919449220}}, {"type": "Feature", "geometry": {"type": "Point", "coordinates": [-2.5880806, 51.4579563]}, "properties": {"node_id": 5919449221}}, {"type": "Feature", "geometry": {"type": "Point", "coordinates": [-2.5897481, 51.4585635]}, "properties": {"node_id": 5919449223}}, {"type": "Feature", "geometry": {"type": "Point", "coordinates": [-2.5866966, 51.4582459]}, "properties": {"node_id": 5919449224}}, {"type": "Feature", "geometry": {"type": "Point", "coordinates": [-2.585998, 51.4570386]}, "properties": {"node_id": 6018494689}}, {"type": "Feature", "geometry": {"type": "Point", "coordinates": [-2.5879994, 51.4610135]}, "properties": {"node_id": 6047257804}}, {"type": "Feature", "geometry": {"type": "Point", "coordinates": [-2.5843242, 51.4571762]}, "properties": {"node_id": 6056055380}}, {"type": "Feature", "geometry": {"type": "Point", "coordinates": [-2.5877325, 51.4581537]}, "properties": {"node_id": 6106912892}}, {"type": "Feature", "geometry": {"type": "Point", "coordinates": [-2.5901764, 51.4620264]}, "properties": {"node_id": 6111856710}}, {"type": "Feature", "geometry": {"type": "Point", "coordinates": [-2.5901569, 51.4620857]}, "properties": {"node_id": 6111856716}}, {"type": "Feature", "geometry": {"type": "Point", "coordinates": [-2.5901167, 51.4620795]}, "properties": {"node_id": 6111856718}}, {"type": "Feature", "geometry": {"type": "Point", "coordinates": [-2.5902615, 51.4620235]}, "properties": {"node_id": 6111856719}}, {"type": "Feature", "geometry": {"type": "Point", "coordinates": [-2.5825341, 51.4616387]}, "properties": {"node_id": 6211450986}}, {"type": "Feature", "geometry": {"type": "Point", "coordinates": [-2.5818705, 51.4607148]}, "properties": {"node_id": 6211451020}}, {"type": "Feature", "geometry": {"type": "Point", "coordinates": [-2.5902978, 51.4631778]}, "properties": {"node_id": 6211575728}}, {"type": "Feature", "geometry": {"type": "Point", "coordinates": [-2.5906351, 51.4614405]}, "properties": {"node_id": 6225987531}}, {"type": "Feature", "geometry": {"type": "Point", "coordinates": [-2.5907092, 51.461458]}, "properties": {"node_id": 6225987532}}, {"type": "Feature", "geometry": {"type": "Point", "coordinates": [-2.5906236, 51.4615251]}, "properties": {"node_id": 6225987537}}, {"type": "Feature", "geometry": {"type": "Point", "coordinates": [-2.5907256, 51.4613621]}, "properties": {"node_id": 6225987538}}, {"type": "Feature", "geometry": {"type": "Point", "coordinates": [-2.5895387, 51.4644561]}, "properties": {"node_id": 6226112846}}, {"type": "Feature", "geometry": {"type": "Point", "coordinates": [-2.589472, 51.4642876]}, "properties": {"node_id": 6226112849}}, {"type": "Feature", "geometry": {"type": "Point", "coordinates": [-2.581788, 51.4584693]}, "properties": {"node_id": 6258642278}}, {"type": "Feature", "geometry": {"type": "Point", "coordinates": [-2.5818692, 51.4584947]}, "properties": {"node_id": 6258642280}}, {"type": "Feature", "geometry": {"type": "Point", "coordinates": [-2.5819934, 51.4585636]}, "properties": {"node_id": 6258642284}}, {"type": "Feature", "geometry": {"type": "Point", "coordinates": [-2.5815365, 51.4586455]}, "properties": {"node_id": 6258646185}}, {"type": "Feature", "geometry": {"type": "Point", "coordinates": [-2.5812738, 51.4586521]}, "properties": {"node_id": 6258646186}}, {"type": "Feature", "geometry": {"type": "Point", "coordinates": [-2.5792995, 51.4585722]}, "properties": {"node_id": 6281096609}}, {"type": "Feature", "geometry": {"type": "Point", "coordinates": [-2.5797672, 51.458623]}, "properties": {"node_id": 6281096610}}, {"type": "Feature", "geometry": {"type": "Point", "coordinates": [-2.5811509, 51.4590244]}, "properties": {"node_id": 6281096613}}, {"type": "Feature", "geometry": {"type": "Point", "coordinates": [-2.5798249, 51.4580181]}, "properties": {"node_id": 6281096639}}, {"type": "Feature", "geometry": {"type": "Point", "coordinates": [-2.5798641, 51.45799]}, "properties": {"node_id": 6281096640}}, {"type": "Feature", "geometry": {"type": "Point", "coordinates": [-2.5798732, 51.457995]}, "properties": {"node_id": 6281096649}}, {"type": "Feature", "geometry": {"type": "Point", "coordinates": [-2.5796998, 51.4578837]}, "properties": {"node_id": 6281096650}}, {"type": "Feature", "geometry": {"type": "Point", "coordinates": [-2.5818133, 51.4578236]}, "properties": {"node_id": 6281096653}}, {"type": "Feature", "geometry": {"type": "Point", "coordinates": [-2.5817644, 51.4579102]}, "properties": {"node_id": 6281096660}}, {"type": "Feature", "geometry": {"type": "Point", "coordinates": [-2.5805609, 51.4576049]}, "properties": {"node_id": 6281096703}}, {"type": "Feature", "geometry": {"type": "Point", "coordinates": [-2.5805197, 51.4576344]}, "properties": {"node_id": 6281096704}}, {"type": "Feature", "geometry": {"type": "Point", "coordinates": [-2.580539, 51.4576205]}, "properties": {"node_id": 6281096705}}, {"type": "Feature", "geometry": {"type": "Point", "coordinates": [-2.5802176, 51.4574449]}, "properties": {"node_id": 6281096706}}, {"type": "Feature", "geometry": {"type": "Point", "coordinates": [-2.5793464, 51.459021]}, "properties": {"node_id": 6283115512}}, {"type": "Feature", "geometry": {"type": "Point", "coordinates": [-2.579278, 51.458984]}, "properties": {"node_id": 6283115514}}, {"type": "Feature", "geometry": {"type": "Point", "coordinates": [-2.5848411, 51.4602033]}, "properties": {"node_id": 6284334867}}, {"type": "Feature", "geometry": {"type": "Point", "coordinates": [-2.5850338, 51.4601594]}, "properties": {"node_id": 6284334868}}, {"type": "Feature", "geometry": {"type": "Point", "coordinates": [-2.585855, 51.4599717]}, "properties": {"node_id": 6284335747}}, {"type": "Feature", "geometry": {"type": "Point", "coordinates": [-2.5859235, 51.4599523]}, "properties": {"node_id": 6284335748}}, {"type": "Feature", "geometry": {"type": "Point", "coordinates": [-2.585681, 51.4598823]}, "properties": {"node_id": 6284335749}}, {"type": "Feature", "geometry": {"type": "Point", "coordinates": [-2.5813949, 51.4595972]}, "properties": {"node_id": 6327222249}}, {"type": "Feature", "geometry": {"type": "Point", "coordinates": [-2.5814887, 51.4596297]}, "properties": {"node_id": 6327222250}}, {"type": "Feature", "geometry": {"type": "Point", "coordinates": [-2.5833218, 51.4644139]}, "properties": {"node_id": 6327865036}}, {"type": "Feature", "geometry": {"type": "Point", "coordinates": [-2.5834055, 51.4643382]}, "properties": {"node_id": 6327865039}}, {"type": "Feature", "geometry": {"type": "Point", "coordinates": [-2.5834784, 51.4645278]}, "properties": {"node_id": 6327865044}}, {"type": "Feature", "geometry": {"type": "Point", "coordinates": [-2.5835869, 51.4644699]}, "properties": {"node_id": 6327865047}}, {"type": "Feature", "geometry": {"type": "Point", "coordinates": [-2.5815855, 51.4632988]}, "properties": {"node_id": 6327939491}}, {"type": "Feature", "geometry": {"type": "Point", "coordinates": [-2.5814741, 51.4632328]}, "properties": {"node_id": 6327939492}}, {"type": "Feature", "geometry": {"type": "Point", "coordinates": [-2.5812571, 51.4636074]}, "properties": {"node_id": 6327939493}}, {"type": "Feature", "geometry": {"type": "Point", "coordinates": [-2.5811616, 51.4635486]}, "properties": {"node_id": 6327939494}}, {"type": "Feature", "geometry": {"type": "Point", "coordinates": [-2.5818705, 51.4640412]}, "properties": {"node_id": 6327939552}}, {"type": "Feature", "geometry": {"type": "Point", "coordinates": [-2.5818787, 51.464036]}, "properties": {"node_id": 6327939553}}, {"type": "Feature", "geometry": {"type": "Point", "coordinates": [-2.5818552, 51.4640508]}, "properties": {"node_id": 6327939555}}, {"type": "Feature", "geometry": {"type": "Point", "coordinates": [-2.5818006, 51.4640173]}, "properties": {"node_id": 6327939693}}, {"type": "Feature", "geometry": {"type": "Point", "coordinates": [-2.5820127, 51.4641478]}, "properties": {"node_id": 6327939694}}, {"type": "Feature", "geometry": {"type": "Point", "coordinates": [-2.5815664, 51.4638975]}, "properties": {"node_id": 6327939695}}, {"type": "Feature", "geometry": {"type": "Point", "coordinates": [-2.5814903, 51.4639477]}, "properties": {"node_id": 6327939696}}, {"type": "Feature", "geometry": {"type": "Point", "coordinates": [-2.5813916, 51.4638896]}, "properties": {"node_id": 6327939698}}, {"type": "Feature", "geometry": {"type": "Point", "coordinates": [-2.5817118, 51.4640733]}, "properties": {"node_id": 6327939700}}, {"type": "Feature", "geometry": {"type": "Point", "coordinates": [-2.580538, 51.4602301]}, "properties": {"node_id": 6403206657}}, {"type": "Feature", "geometry": {"type": "Point", "coordinates": [-2.580791, 51.4603655]}, "properties": {"node_id": 6403206658}}, {"type": "Feature", "geometry": {"type": "Point", "coordinates": [-2.5796181, 51.4587356]}, "properties": {"node_id": 6407359799}}, {"type": "Feature", "geometry": {"type": "Point", "coordinates": [-2.5909562, 51.4609962]}, "properties": {"node_id": 6471108988}}, {"type": "Feature", "geometry": {"type": "Point", "coordinates": [-2.5847302, 51.4587939]}, "properties": {"node_id": 6481238325}}, {"type": "Feature", "geometry": {"type": "Point", "coordinates": [-2.5844914, 51.4586036]}, "properties": {"node_id": 6481238332}}, {"type": "Feature", "geometry": {"type": "Point", "coordinates": [-2.5851494, 51.4585052]}, "properties": {"node_id": 6481238337}}, {"type": "Feature", "geometry": {"type": "Point", "coordinates": [-2.5853501, 51.456502]}, "properties": {"node_id": 6824060862}}, {"type": "Feature", "geometry": {"type": "Point", "coordinates": [-2.5855493, 51.4570213]}, "properties": {"node_id": 6824060866}}, {"type": "Feature", "geometry": {"type": "Point", "coordinates": [-2.5857914, 51.4571141]}, "properties": {"node_id": 6824060867}}, {"type": "Feature", "geometry": {"type": "Point", "coordinates": [-2.5903388, 51.4591743]}, "properties": {"node_id": 6937982874}}, {"type": "Feature", "geometry": {"type": "Point", "coordinates": [-2.5834274, 51.4622225]}, "properties": {"node_id": 8230223567}}, {"type": "Feature", "geometry": {"type": "Point", "coordinates": [-2.5855831, 51.4569079]}, "properties": {"node_id": 8910794146}}, {"type": "Feature", "geometry": {"type": "Point", "coordinates": [-2.5855617, 51.456941]}, "properties": {"node_id": 8910794147}}, {"type": "Feature", "geometry": {"type": "Point", "coordinates": [-2.5856513, 51.4570711]}, "properties": {"node_id": 8910794148}}, {"type": "Feature", "geometry": {"type": "Point", "coordinates": [-2.5856226, 51.4570016]}, "properties": {"node_id": 8910794149}}, {"type": "Feature", "geometry": {"type": "Point", "coordinates": [-2.5854462, 51.4569109]}, "properties": {"node_id": 8910794150}}, {"type": "Feature", "geometry": {"type": "Point", "coordinates": [-2.5856056, 51.4571438]}, "properties": {"node_id": 8910794156}}, {"type": "Feature", "geometry": {"type": "Point", "coordinates": [-2.585689, 51.456984]}, "properties": {"node_id": 8910794161}}, {"type": "Feature", "geometry": {"type": "Point", "coordinates": [-2.5801416, 51.4565547]}, "properties": {"node_id": 8939668299}}, {"type": "Feature", "geometry": {"type": "Point", "coordinates": [-2.580462, 51.4569383]}, "properties": {"node_id": 8942202643}}, {"type": "Feature", "geometry": {"type": "Point", "coordinates": [-2.5810133, 51.4566635]}, "properties": {"node_id": 8942202648}}, {"type": "Feature", "geometry": {"type": "Point", "coordinates": [-2.5887919, 51.4564916]}, "properties": {"node_id": 9402506775}}, {"type": "Feature", "geometry": {"type": "Point", "coordinates": [-2.5886734, 51.4565467]}, "properties": {"node_id": 9402506778}}, {"type": "Feature", "geometry": {"type": "Point", "coordinates": [-2.5887575, 51.4565076]}, "properties": {"node_id": 9402506784}}, {"type": "Feature", "geometry": {"type": "Point", "coordinates": [-2.5907457, 51.4599074]}, "properties": {"node_id": 9464338656}}, {"type": "Feature", "geometry": {"type": "Point", "coordinates": [-2.5904747, 51.4583082]}, "properties": {"node_id": 9809981557}}, {"type": "Feature", "geometry": {"type": "Point", "coordinates": [-2.5905499, 51.4582821]}, "properties": {"node_id": 9809981567}}, {"type": "Feature", "geometry": {"type": "Point", "coordinates": [-2.5907878, 51.4587056]}, "properties": {"node_id": 9809981574}}, {"type": "Feature", "geometry": {"type": "Point", "coordinates": [-2.5847945, 51.4620878]}, "properties": {"node_id": 10681863994}}, {"type": "Feature", "geometry": {"type": "Point", "coordinates": [-2.5846082, 51.4618597]}, "properties": {"node_id": 10681863998}}, {"type": "Feature", "geometry": {"type": "Point", "coordinates": [-2.5906116, 51.4634326]}, "properties": {"node_id": 10816632963}}, {"type": "Feature", "geometry": {"type": "Point", "coordinates": [-2.5906812, 51.4635064]}, "properties": {"node_id": 10816643038}}, {"type": "Feature", "geometry": {"type": "Point", "coordinates": [-2.5907953, 51.4635803]}, "properties": {"node_id": 10816643042}}, {"type": "Feature", "geometry": {"type": "Point", "coordinates": [-2.5908496, 51.4640564]}, "properties": {"node_id": 10816643047}}, {"type": "Feature", "geometry": {"type": "Point", "coordinates": [-2.5909837, 51.464068]}, "properties": {"node_id": 10816643706}}, {"type": "Feature", "geometry": {"type": "Point", "coordinates": [-2.5906753, 51.4640413]}, "properties": {"node_id": 10816643793}}, {"type": "Feature", "geometry": {"type": "Point", "coordinates": [-2.5908577, 51.4640252]}, "properties": {"node_id": 10816643813}}, {"type": "Feature", "geometry": {"type": "Point", "coordinates": [-2.5907183, 51.4634953]}, "properties": {"node_id": 10816643831}}, {"type": "Feature", "geometry": {"type": "Point", "coordinates": [-2.5909008, 51.463402]}, "properties": {"node_id": 10816643835}}, {"type": "Feature", "geometry": {"type": "Point", "coordinates": [-2.5909894, 51.4634603]}, "properties": {"node_id": 10816643836}}, {"type": "Feature", "geometry": {"type": "Point", "coordinates": [-2.5908421, 51.4633627]}, "properties": {"node_id": 10816643839}}, {"type": "Feature", "geometry": {"type": "Point", "coordinates": [-2.5912135, 51.4629796]}, "properties": {"node_id": 10816643847}}, {"type": "Feature", "geometry": {"type": "Point", "coordinates": [-2.5914645, 51.463022]}, "properties": {"node_id": 10816643851}}, {"type": "Feature", "geometry": {"type": "Point", "coordinates": [-2.5915407, 51.4630081]}, "properties": {"node_id": 10816643852}}, {"type": "Feature", "geometry": {"type": "Point", "coordinates": [-2.5915048, 51.462966]}, "properties": {"node_id": 10816643854}}, {"type": "Feature", "geometry": {"type": "Point", "coordinates": [-2.5917393, 51.4626337]}, "properties": {"node_id": 10816643857}}, {"type": "Feature", "geometry": {"type": "Point", "coordinates": [-2.591974, 51.4627353]}, "properties": {"node_id": 10816643864}}, {"type": "Feature", "geometry": {"type": "Point", "coordinates": [-2.5913011, 51.462922]}, "properties": {"node_id": 10816643874}}, {"type": "Feature", "geometry": {"type": "Point", "coordinates": [-2.591658, 51.4627811]}, "properties": {"node_id": 10816643890}}, {"type": "Feature", "geometry": {"type": "Point", "coordinates": [-2.5917163, 51.4627863]}, "properties": {"node_id": 10816643893}}, {"type": "Feature", "geometry": {"type": "Point", "coordinates": [-2.59114, 51.4635262]}, "properties": {"node_id": 10816643900}}, {"type": "Feature", "geometry": {"type": "Point", "coordinates": [-2.5913046, 51.4630347]}, "properties": {"node_id": 10816643907}}, {"type": "Feature", "geometry": {"type": "Point", "coordinates": [-2.5912694, 51.4631011]}, "properties": {"node_id": 10816643908}}, {"type": "Feature", "geometry": {"type": "Point", "coordinates": [-2.5914516, 51.4630695]}, "properties": {"node_id": 10816974035}}, {"type": "Feature", "geometry": {"type": "Point", "coordinates": [-2.5919694, 51.4627368]}, "properties": {"node_id": 10816974038}}, {"type": "Feature", "geometry": {"type": "Point", "coordinates": [-2.5920595, 51.4627835]}, "properties": {"node_id": 10816974040}}, {"type": "Feature", "geometry": {"type": "Point", "coordinates": [-2.5911432, 51.4635269]}, "properties": {"node_id": 10848175178}}, {"type": "Feature", "geometry": {"type": "Point", "coordinates": [-2.5823434, 51.4608789]}, "properties": {"node_id": 10901402906}}, {"type": "Feature", "geometry": {"type": "Point", "coordinates": [-2.5825685, 51.4607695]}, "properties": {"node_id": 10901402907}}, {"type": "Feature", "geometry": {"type": "Point", "coordinates": [-2.5825333, 51.4607269]}, "properties": {"node_id": 10901402908}}, {"type": "Feature", "geometry": {"type": "Point", "coordinates": [-2.5828583, 51.4609087]}, "properties": {"node_id": 10901402910}}, {"type": "Feature", "geometry": {"type": "Point", "coordinates": [-2.5827203, 51.4607155]}, "properties": {"node_id": 10901402911}}, {"type": "Feature", "geometry": {"type": "Point", "coordinates": [-2.5824401, 51.4606142]}, "properties": {"node_id": 10901402914}}, {"type": "Feature", "geometry": {"type": "Point", "coordinates": [-2.5847833, 51.4573054]}, "properties": {"node_id": 11124020086}}, {"type": "Feature", "geometry": {"type": "Point", "coordinates": [-2.5829545, 51.4598065]}, "properties": {"node_id": 11159894542}}, {"type": "Feature", "geometry": {"type": "Point", "coordinates": [-2.5816737, 51.458761]}, "properties": {"node_id": 11776527150}}, {"type": "Feature", "geometry": {"type": "Point", "coordinates": [-2.5814394, 51.458641]}, "properties": {"node_id": 11776527151}}, {"type": "Feature", "geometry": {"type": "Point", "coordinates": [-2.5885701, 51.4570006]}, "properties": {"node_id": 11786838677}}, {"type": "Feature", "geometry": {"type": "Point", "coordinates": [-2.5887635, 51.4572966]}, "properties": {"node_id": 11786838680}}, {"type": "Feature", "geometry": {"type": "Point", "coordinates": [-2.5890827, 51.457696]}, "properties": {"node_id": 11786838687}}, {"type": "Feature", "geometry": {"type": "Point", "coordinates": [-2.5799275, 51.4577197]}, "properties": {"node_id": 12023837911}}, {"type": "Feature", "geometry": {"type": "Point", "coordinates": [-2.5795183, 51.4576086]}, "properties": {"node_id": 12023837913}}, {"type": "Feature", "geometry": {"type": "Point", "coordinates": [-2.5895923, 51.4637217]}, "properties": {"node_id": 12248092926}}, {"type": "Feature", "geometry": {"type": "Point", "coordinates": [-2.5897726, 51.4637318]}, "properties": {"node_id": 12248092928}}, {"type": "Feature", "geometry": {"type": "Point", "coordinates": [-2.5895424, 51.457553]}, "properties": {"node_id": 12248299110}}, {"type": "Feature", "geometry": {"type": "Point", "coordinates": [-2.5897292, 51.4575018]}, "properties": {"node_id": 12248299111}}, {"type": "Feature", "geometry": {"type": "Point", "coordinates": [-2.5901519, 51.457371]}, "properties": {"node_id": 12272057948}}, {"type": "Feature", "geometry": {"type": "Point", "coordinates": [-2.5903389, 51.4573197]}, "properties": {"node_id": 12272057949}}, {"type": "Feature", "geometry": {"type": "Point", "coordinates": [-2.5887099, 51.4572059]}, "properties": {"node_id": 12272098112}}, {"type": "Feature", "geometry": {"type": "Point", "coordinates": [-2.5805213, 51.4572616]}, "properties": {"node_id": 12461273917}}, {"type": "Feature", "geometry": {"type": "Point", "coordinates": [-2.5805373, 51.4572826]}, "properties": {"node_id": 12461273918}}, {"type": "Feature", "geometry": {"type": "Point", "coordinates": [-2.5806339, 51.4570962]}, "properties": {"node_id": 12461273922}}, {"type": "Feature", "geometry": {"type": "Point", "coordinates": [-2.5799626, 51.4565992]}, "properties": {"node_id": 12461273925}}, {"type": "Feature", "geometry": {"type": "Point", "coordinates": [-2.58573, 51.4567117]}, "properties": {"node_id": 12595689521}}, {"type": "Feature", "geometry": {"type": "Point", "coordinates": [-2.5859043, 51.4569404]}, "properties": {"node_id": 12595689526}}, {"type": "Feature", "geometry": {"type": "Point", "coordinates": [-2.5860048, 51.4569616]}, "properties": {"node_id": 12595689528}}, {"type": "Feature", "geometry": {"type": "Point", "coordinates": [-2.5860511, 51.4570222]}, "properties": {"node_id": 12595689538}}, {"type": "Feature", "geometry": {"type": "Point", "coordinates": [-2.5837122, 51.4594534]}, "properties": {"node_id": 12613167913}}, {"type": "Feature", "geometry": {"type": "Point", "coordinates": [-2.5922107, 51.4577963]}, "properties": {"node_id": 12620942896}}, {"type": "Feature", "geometry": {"type": "Point", "coordinates": [-2.5922227, 51.4577616]}, "properties": {"node_id": 12620942897}}, {"type": "Feature", "geometry": {"type": "Point", "coordinates": [-2.584829, 51.4569739]}, "properties": {"node_id": 12649817254}}, {"type": "Feature", "geometry": {"type": "Point", "coordinates": [-2.5812133, 51.4584174]}, "properties": {"node_id": 12750591314}}, {"type": "Feature", "geometry": {"type": "Point", "coordinates": [-2.5812617, 51.458443]}, "properties": {"node_id": 12750591315}}, {"type": "Feature", "geometry": {"type": "Point", "coordinates": [-2.590956, 51.4571382]}, "properties": {"node_id": 12806902198}}, {"type": "Feature", "geometry": {"type": "Point", "coordinates": [-2.5900574, 51.4574016]}, "properties": {"node_id": 12806902199}}, {"type": "Feature", "geometry": {"type": "Point", "coordinates": [-2.5891472, 51.4569265]}, "properties": {"node_id": 12806924702}}, {"type": "Feature", "geometry": {"type": "Point", "coordinates": [-2.5886888, 51.457178]}, "properties": {"node_id": 12806924703}}, {"type": "Feature", "geometry": {"type": "Point", "coordinates": [-2.5885866, 51.4570227]}, "properties": {"node_id": 12806924704}}, {"type": "Feature", "geometry": {"type": "Point", "coordinates": [-2.5901118, 51.4565608]}, "properties": {"node_id": 12806924705}}, {"type": "Feature", "geometry": {"type": "Point", "coordinates": [-2.5903073, 51.4566016]}, "properties": {"node_id": 12806924710}}, {"type": "Feature", "geometry": {"type": "Point", "coordinates": [-2.5822237, 51.4582726]}, "properties": {"node_id": 12960802960}}, {"type": "Feature", "geometry": {"type": "Point", "coordinates": [-2.5792658, 51.4585532]}, "properties": {"node_id": 12989585399}}, {"type": "Feature", "geometry": {"type": "Point", "coordinates": [-2.5837209, 51.4578102]}, "properties": {"node_id": 12992899143}}, {"type": "Feature", "geometry": {"type": "Point", "coordinates": [-2.5908923, 51.4599133]}, "properties": {"node_id": 13002072656}}, {"type": "Feature", "geometry": {"type": "Point", "coordinates": [-2.5920828, 51.4601149]}, "properties": {"node_id": 13127907918}}, {"type": "Feature", "geometry": {"type": "Point", "coordinates": [-2.5830748, 51.4571778]}, "properties": {"node_id": 13136150089}}, {"type": "Feature", "geometry": {"type": "Point", "coordinates": [-2.5831137, 51.457635]}, "properties": {"node_id": 13176630418}}, {"type": "Feature", "geometry": {"type": "Point", "coordinates": [-2.5823601, 51.4643022]}, "properties": {"node_id": 13191500416}}, {"type": "Feature", "geometry": {"type": "Point", "coordinates": [-2.5823607, 51.4642859]}, "properties": {"node_id": 13191500417}}, {"type": "Feature", "geometry": {"type": "Point", "coordinates": [-2.5823312, 51.4645398]}, "properties": {"node_id": 13191500418}}, {"type": "Feature", "geometry": {"type": "Point", "coordinates": [-2.5825215, 51.4642887]}, "properties": {"node_id": 13191500419}}, {"type": "Feature", "geometry": {"type": "Point", "coordinates": [-2.5825922, 51.4643068]}, "properties": {"node_id": 13191500421}}, {"type": "Feature", "geometry": {"type": "Point", "coordinates": [-2.5826182, 51.4642891]}, "properties": {"node_id": 13191500422}}, {"type": "Feature", "geometry": {"type": "Point", "coordinates": [-2.5823618, 51.4642629]}, "properties": {"node_id": 13191500424}}, {"type": "Feature", "geometry": {"type": "Point", "coordinates": [-2.5887076, 51.4639837]}, "properties": {"node_id": 13275305468}}, {"type": "Feature", "geometry": {"type": "Point", "coordinates": [-2.5889891, 51.464406]}, "properties": {"node_id": 13275305469}}, {"type": "Feature", "geometry": {"type": "Point", "coordinates": [-2.5912617, 51.4570259]}, "properties": {"node_id": 13288882109}}, {"type": "Feature", "geometry": {"type": "Point", "coordinates": [-2.5914055, 51.4569861]}, "properties": {"node_id": 13288882110}}]}